HAWK-2C                 
1 47502U 21006CT  26068.67595434  .00008129  00000+0  25493-3 0  9997
2 47502  97.2417 114.9961 0006943 184.0877 176.0310 15.33286436284247
STARLINK-35556          
1 66238U 25245E   26068.87839792  .00025426  00000+0  86742-3 0  9996
2 66238  53.1570 283.1486 0000823  86.5771 273.5323 15.30208155 21285
