[{"OBJECT_NAME":"HAWK-2C","OBJECT_ID":"2021-006CT","EPOCH":"2026-03-09T16:13:22.454976","MEAN_MOTION":15.33286436,"ECCENTRICITY":0.0006943,"INCLINATION":97.2417,"RA_OF_ASC_NODE":114.9961,"ARG_OF_PERICENTER":184.0877,"MEAN_ANOMALY":176.031,"EPHEMERIS_TYPE":0,"CLASSIFICATION_TYPE":"U","NORAD_CAT_ID":47502,"ELEMENT_SET_NO":999,"REV_AT_EPOCH":28424,"BSTAR":0.00025492914,"MEAN_MOTION_DOT":8.129e-5,"MEAN_MOTION_DDOT":0},{"OBJECT_NAME":"STARLINK-35556","OBJECT_ID":"2025-245E","EPOCH":"2026-03-09T21:04:53.580288","MEAN_MOTION":15.30208156,"ECCENTRICITY":8.233e-5,"INCLINATION":53.157,"RA_OF_ASC_NODE":283.1486,"ARG_OF_PERICENTER":86.5771,"MEAN_ANOMALY":273.5323,"EPHEMERIS_TYPE":0,"CLASSIFICATION_TYPE":"U","NORAD_CAT_ID":66238,"ELEMENT_SET_NO":999,"REV_AT_EPOCH":2128,"BSTAR":0.00086742047,"MEAN_MOTION_DOT":0.00025426,"MEAN_MOTION_DDOT":0}]
